IRIDIUM 7               
1 24793U 97020B   25047.75624924  .00000758  00000+0  25550-3 0  9999
2 24793  86.3939 227.3255 0002209  97.8488 262.2960 14.35764150454835
IRIDIUM 5               
1 24795U 97020D   25047.51521745  .00010585  00000+0  90956-3 0  9993
2 24795  86.3935 139.3137 0111782 210.1269 149.3502 14.92527028467451
IRIDIUM 4               
1 24796U 97020E   25047.53699676  .00000843  00000+0  27995-3 0  9994
2 24796  86.3938 224.3736 0001994  94.8426 265.2998 14.36674588455142
IRIDIUM 914             
1 24836U 97030A   25047.59793620  .00000897  00000+0  27496-3 0  9995
2 24836  86.3905 233.3158 0000577 130.1926 229.9324 14.40658558589764
IRIDIUM 16              
1 24841U 97030F   25047.58609282  .00000716  00000+0  22802-3 0  9996
2 24841  86.3981 255.9386 0004249  95.8550 264.3132 14.38516801449662
IRIDIUM 911             
1 24842U 97030G   25047.62765268  .00001012  00000+0  27034-3 0  9991
2 24842  86.4407 254.8153 0015603 134.0171 226.2321 14.47368159457643
IRIDIUM 17              
1 24870U 97034B   25047.70764741  .00000746  00000+0  24225-3 0  9992
2 24870  86.3929 285.4482 0003535  69.7769 290.3809 14.37634704446276
IRIDIUM 920             
1 24871U 97034C   25047.85167636  .00000684  00000+0  20501-3 0  9993
2 24871  86.3923 264.8710 0013347 114.6016 245.6576 14.41336240449505
